start=new Date('2022-01-09T00:00:00.000Z').valueOf();
sats=[{"EPOCH":"2022-01-08T22:06:58.051872","APOAPSIS":"343.992","EPHEMERIS_TYPE":"0","ELEMENT_SET_NO":"999","MEAN_ANOMALY":"34.1312","REF_FRAME":"TEME","PERIOD":"91.329","RCS_SIZE":"LARGE","ARG_OF_PERICENTER":"325.9299","OBJECT_ID":"2020-012BF","FILE":"3267514","OBJECT_NAME":"STARLINK-1229","CLASSIFICATION_TYPE":"U","RA_OF_ASC_NODE":"259.3765","ECCENTRICITY":"0.00063480","LAUNCH_DATE":"2020-02-17","MEAN_MOTION_DOT":"0.00000393","REV_AT_EPOCH":"10737","MEAN_MOTION_DDOT":"0.0000000000000","INCLINATION":"53.0297","OBJECT_TYPE":"PAYLOAD","MEAN_ELEMENT_THEORY":"SGP4","DECAY_DATE":null,"CENTER_NAME":"EARTH","TLE_LINE2":"2 45231  53.0297 259.3765 0006348 325.9299  34.1312 15.76725578107375","NORAD_CAT_ID":"45231","PERIAPSIS":"335.463","MEAN_MOTION":"15.76725578","SEMIMAJOR_AXIS":"6717.862","GP_ID":"193488157","SITE":"AFETR","TIME_SYSTEM":"UTC","TLE_LINE1":"1 45231U 20012BF  22008.92150523  .00000393  00000-0  64585-5 0  9997","BSTAR":"0.00000645850000","COUNTRY_CODE":"US"},{"LAUNCH_DATE":"2020-02-17","MEAN_MOTION_DOT":"-0.00000513","REV_AT_EPOCH":"10611","FILE":"3267276","OBJECT_NAME":"STARLINK-1235","CLASSIFICATION_TYPE":"U","RA_OF_ASC_NODE":"355.7753","ECCENTRICITY":"0.00017050","REF_FRAME":"TEME","RCS_SIZE":"LARGE","PERIOD":"95.593","ARG_OF_PERICENTER":"68.1581","OBJECT_ID":"2020-012BG","EPOCH":"2022-01-08T10:31:31.471680","APOAPSIS":"548.412","EPHEMERIS_TYPE":"0","ELEMENT_SET_NO":"999","MEAN_ANOMALY":"291.9589","TIME_SYSTEM":"UTC","TLE_LINE1":"1 45232U 20012BG  22008.43855870 -.00000513  00000-0 -15538-4 0  9990","BSTAR":"-0.00001553800000","COUNTRY_CODE":"US","MEAN_MOTION":"15.06394104","SEMIMAJOR_AXIS":"6925.367","GP_ID":"193459078","SITE":"AFETR","TLE_LINE2":"2 45232  53.0557 355.7753 0001705  68.1581 291.9589 15.06394104106115","NORAD_CAT_ID":"45232","PERIAPSIS":"546.051","MEAN_MOTION_DDOT":"0.0000000000000","INCLINATION":"53.0557","MEAN_ELEMENT_THEORY":"SGP4","OBJECT_TYPE":"PAYLOAD","DECAY_DATE":null,"CENTER_NAME":"EARTH"},{"MEAN_ELEMENT_THEORY":"SGP4","OBJECT_TYPE":"PAYLOAD","MEAN_MOTION_DDOT":"0.0000000000000","INCLINATION":"53.0570","CENTER_NAME":"EARTH","DECAY_DATE":null,"NORAD_CAT_ID":"45233","TLE_LINE2":"2 45233  53.0570  14.3809 0001431  72.7182 287.3963 15.06393969105869","PERIAPSIS":"546.241","MEAN_MOTION":"15.06393969","GP_ID":"193489660","SITE":"AFETR","SEMIMAJOR_AXIS":"6925.367","TLE_LINE1":"1 45233U 20012BH  22008.75001966 -.00000822  00000-0 -36267-4 0  9990","BSTAR":"-0.00003626700000","TIME_SYSTEM":"UTC","COUNTRY_CODE":"US","ELEMENT_SET_NO":"999","EPHEMERIS_TYPE":"0","APOAPSIS":"548.223","EPOCH":"2022-01-08T18:00:01.698624","MEAN_ANOMALY":"287.3963","PERIOD":"95.593","RCS_SIZE":"LARGE","REF_FRAME":"TEME","OBJECT_ID":"2020-012BH","ARG_OF_PERICENTER":"72.7182","CLASSIFICATION_TYPE":"U","FILE":"3267514","OBJECT_NAME":"STARLINK-1238","ECCENTRICITY":"0.00014310","RA_OF_ASC_NODE":"14.3809","MEAN_MOTION_DOT":"-0.00000822","REV_AT_EPOCH":"10586","LAUNCH_DATE":"2020-02-17"},{"ELEMENT_SET_NO":"999","APOAPSIS":"548.132","EPHEMERIS_TYPE":"0","EPOCH":"2022-01-08T18:55:45.377760","MEAN_ANOMALY":"288.4054","RCS_SIZE":"LARGE","PERIOD":"95.592","REF_FRAME":"TEME","OBJECT_ID":"2020-012BJ","ARG_OF_PERICENTER":"71.7080","CLASSIFICATION_TYPE":"U","FILE":"3267514","OBJECT_NAME":"STARLINK-1243","ECCENTRICITY":"0.00013360","RA_OF_ASC_NODE":"34.1980","MEAN_MOTION_DOT":"0.00001772","REV_AT_EPOCH":"10557","LAUNCH_DATE":"2020-02-17","OBJECT_TYPE":"PAYLOAD","MEAN_ELEMENT_THEORY":"SGP4","MEAN_MOTION_DDOT":"0.0000000000000","INCLINATION":"53.0543","CENTER_NAME":"EARTH","DECAY_DATE":null,"NORAD_CAT_ID":"45234","TLE_LINE2":"2 45234  53.0543  34.1980 0001336  71.7080 288.4054 15.06402160105575","PERIAPSIS":"546.282","MEAN_MOTION":"15.06402160","SITE":"AFETR","GP_ID":"193488408","SEMIMAJOR_AXIS":"6925.342","TLE_LINE1":"1 45234U 20012BJ  22008.78871965  .00001772  00000-0  13783-3 0  9998","BSTAR":"0.00013783000000","TIME_SYSTEM":"UTC","COUNTRY_CODE":"US"},{"SITE":"AFETR","GP_ID":"193488658","SEMIMAJOR_AXIS":"6925.325","MEAN_MOTION":"15.06407598","COUNTRY_CODE":"US","TIME_SYSTEM":"UTC","BSTAR":"0.00022793000000","TLE_LINE1":"1 45235U 20012BK  22008.77397088  .00003116  00000-0  22793-3 0  9992","CENTER_NAME":"EARTH","DECAY_DATE":null,"OBJECT_TYPE":"PAYLOAD","MEAN_ELEMENT_THEORY":"SGP4","MEAN_MOTION_DDOT":"0.0000000000000","INCLINATION":"53.0556","PERIAPSIS":"546.149","TLE_LINE2":"2 45235  53.0556  34.2862 0001504  70.6069 289.5082 15.06407598105621","NORAD_CAT_ID":"45235","RA_OF_ASC_NODE":"34.2862","ECCENTRICITY":"0.00015040","FILE":"3267514","OBJECT_NAME":"STARLINK-1246","CLASSIFICATION_TYPE":"U","LAUNCH_DATE":"2020-02-17","REV_AT_EPOCH":"10562","MEAN_MOTION_DOT":"0.00003116","MEAN_ANOMALY":"289.5082","APOAPSIS":"548.232","EPHEMERIS_TYPE":"0","ELEMENT_SET_NO":"999","EPOCH":"2022-01-08T18:34:31.084032","OBJECT_ID":"2020-012BK","ARG_OF_PERICENTER":"70.6069","REF_FRAME":"TEME","RCS_SIZE":"LARGE","PERIOD":"95.592"},{"RCS_SIZE":"LARGE","PERIOD":"95.592","REF_FRAME":"TEME","OBJECT_ID":"2020-012BL","ARG_OF_PERICENTER":"75.0754","ELEMENT_SET_NO":"999","EPHEMERIS_TYPE":"0","APOAPSIS":"548.388","EPOCH":"2022-01-08T16:32:27.135744","MEAN_ANOMALY":"285.0421","REV_AT_EPOCH":"10614","MEAN_MOTION_DOT":"0.00000171","LAUNCH_DATE":"2020-02-17","CLASSIFICATION_TYPE":"U","FILE":"3267514","OBJECT_NAME":"STARLINK-1247","ECCENTRICITY":"0.00016780","RA_OF_ASC_NODE":"354.6529","NORAD_CAT_ID":"45236","TLE_LINE2":"2 45236  53.0549 354.6529 0001678  75.0754 285.0421 15.06395930106147","PERIAPSIS":"546.064","OBJECT_TYPE":"PAYLOAD","MEAN_ELEMENT_THEORY":"SGP4","INCLINATION":"53.0549","MEAN_MOTION_DDOT":"0.0000000000000","CENTER_NAME":"EARTH","DECAY_DATE":null,"TLE_LINE1":"1 45236U 20012BL  22008.68920296  .00000171  00000-0  30353-4 0  9996","BSTAR":"0.00003035300000","TIME_SYSTEM":"UTC","COUNTRY_CODE":"US","MEAN_MOTION":"15.06395930","SITE":"AFETR","GP_ID":"193489410","SEMIMAJOR_AXIS":"6925.361"},{"MEAN_MOTION":"15.06396061","SEMIMAJOR_AXIS":"6925.361","GP_ID":"193489160","SITE":"AFETR","TIME_SYSTEM":"UTC","TLE_LINE1":"1 45237U 20012BM  22008.64497196 -.00000346  00000-0 -43193-5 0  9994","BSTAR":"-0.00000431930000","COUNTRY_CODE":"US","MEAN_MOTION_DDOT":"0.0000000000000","INCLINATION":"53.0564","MEAN_ELEMENT_THEORY":"SGP4","OBJECT_TYPE":"PAYLOAD","DECAY_DATE":null,"CENTER_NAME":"EARTH","TLE_LINE2":"2 45237  53.0564 354.8667 0001482  75.2902 284.8251 15.06396061106144","NORAD_CAT_ID":"45237","PERIAPSIS":"546.199","FILE":"3267514","OBJECT_NAME":"STARLINK-1270","CLASSIFICATION_TYPE":"U","RA_OF_ASC_NODE":"354.8667","ECCENTRICITY":"0.00014820","LAUNCH_DATE":"2020-02-17","MEAN_MOTION_DOT":"-0.00000346","REV_AT_EPOCH":"10614","EPOCH":"2022-01-08T15:28:45.577344","APOAPSIS":"548.252","EPHEMERIS_TYPE":"0","ELEMENT_SET_NO":"999","MEAN_ANOMALY":"284.8251","REF_FRAME":"TEME","PERIOD":"95.592","RCS_SIZE":"LARGE","ARG_OF_PERICENTER":"75.2902","OBJECT_ID":"2020-012BM"},{"COUNTRY_CODE":"US","TIME_SYSTEM":"UTC","BSTAR":"0.00007413600000","TLE_LINE1":"1 45360U 20019A   22008.73619406  .00000823  00000-0  74136-4 0  9996","GP_ID":"193488422","SITE":"AFETR","SEMIMAJOR_AXIS":"6925.362","MEAN_MOTION":"15.06395575","PERIAPSIS":"546.499","TLE_LINE2":"2 45360  53.0547 124.4434 0001052  86.2688 273.8422 15.06395575100894","NORAD_CAT_ID":"45360","CENTER_NAME":"EARTH","DECAY_DATE":null,"MEAN_ELEMENT_THEORY":"SGP4","OBJECT_TYPE":"PAYLOAD","INCLINATION":"53.0547","MEAN_MOTION_DDOT":"0.0000000000000","LAUNCH_DATE":"2020-03-18","REV_AT_EPOCH":"10089","MEAN_MOTION_DOT":"0.00000823","RA_OF_ASC_NODE":"124.4434","ECCENTRICITY":"0.00010520","OBJECT_NAME":"STARLINK-1279","FILE":"3267514","CLASSIFICATION_TYPE":"U","OBJECT_ID":"2020-019A","ARG_OF_PERICENTER":"86.2688","REF_FRAME":"TEME","PERIOD":"95.592","RCS_SIZE":"LARGE","MEAN_ANOMALY":"273.8422","APOAPSIS":"547.956","EPHEMERIS_TYPE":"0","ELEMENT_SET_NO":"999","EPOCH":"2022-01-08T17:40:07.166784"},{"EPOCH":"2022-01-08T15:47:19.545504","ELEMENT_SET_NO":"999","EPHEMERIS_TYPE":"0","APOAPSIS":"548.538","MEAN_ANOMALY":"260.0786","RCS_SIZE":"LARGE","PERIOD":"95.592","REF_FRAME":"TEME","ARG_OF_PERICENTER":"100.0418","OBJECT_ID":"2020-019B","CLASSIFICATION_TYPE":"U","FILE":"3267514","OBJECT_NAME":"STARLINK-1301","ECCENTRICITY":"0.00019110","RA_OF_ASC_NODE":"134.7951","MEAN_MOTION_DOT":"0.00001161","REV_AT_EPOCH":"10075","LAUNCH_DATE":"2020-03-18","INCLINATION":"53.0547","MEAN_MOTION_DDOT":"0.0000000000000","MEAN_ELEMENT_THEORY":"SGP4","OBJECT_TYPE":"PAYLOAD","DECAY_DATE":null,"CENTER_NAME":"EARTH","NORAD_CAT_ID":"45361","TLE_LINE2":"2 45361  53.0547 134.7951 0001911 100.0418 260.0786 15.06399662100750","PERIAPSIS":"545.891","MEAN_MOTION":"15.06399662","SEMIMAJOR_AXIS":"6925.350","GP_ID":"193488672","SITE":"AFETR","TLE_LINE1":"1 45361U 20019B   22008.65786511  .00001161  00000-0  96804-4 0  9992","BSTAR":"0.00009680400000","TIME_SYSTEM":"UTC","COUNTRY_CODE":"US"},{"RA_OF_ASC_NODE":"154.5875","ECCENTRICITY":"0.00020720","FILE":"3267514","OBJECT_NAME":"STARLINK-1306","CLASSIFICATION_TYPE":"U","LAUNCH_DATE":"2020-03-18","REV_AT_EPOCH":"10047","MEAN_MOTION_DOT":"0.00000750","MEAN_ANOMALY":"271.1829","EPOCH":"2022-01-08T16:53:41.139168","APOAPSIS":"548.678","EPHEMERIS_TYPE":"0","ELEMENT_SET_NO":"999","ARG_OF_PERICENTER":"88.9398","OBJECT_ID":"2020-019C","REF_FRAME":"TEME","PERIOD":"95.593","RCS_SIZE":"LARGE","SEMIMAJOR_AXIS":"6925.378","SITE":"AFETR","GP_ID":"193489424","MEAN_MOTION":"15.06390438","COUNTRY_CODE":"US","TIME_SYSTEM":"UTC","TLE_LINE1":"1 45362U 20019C   22008.70394837  .00000750  00000-0  69301-4 0  9990","BSTAR":"0.00006930100000","DECAY_DATE":null,"CENTER_NAME":"EARTH","INCLINATION":"53.0540","MEAN_MOTION_DDOT":"0.0000000000000","MEAN_ELEMENT_THEORY":"SGP4","OBJECT_TYPE":"PAYLOAD","PERIAPSIS":"545.808","TLE_LINE2":"2 45362  53.0540 154.5875 0002072  88.9398 271.1829 15.06390438100471","NORAD_CAT_ID":"45362"}];
